1 43013U 17073A   25355.80110449  .00000073  00000+0  55517-4 0  9992
2 43013  98.7612 291.9992 0002117  74.2593 285.8816 14.19527965419302
